[Satellite]
VERSION=1.1
NAME=DELLINGR (RBLE)
NICKNAME=DELLINGR (RBLE)
TLE1=1 43021U 98067NJ  20157.98028277  .00013541  00000-0  11252-3 0  9996
TLE2=2 43021  51.6358 338.4538 0001153  35.4597 324.6477 15.70508349145068
STATUS=0
